*******************************************************************************
JPL/HORIZONS                672 Astarte (A908 SH)          2023-Sep-04 11:07:40
Rec #:     672 (+COV) Soln.date: 2023-Aug-24_11:38:04   # obs: 6323 (1907-2023)
 
IAU76/J2000 helio. ecliptic osc. elements (au, days, deg., period=Julian yrs):
 
  EPOCH=  2457308.5 ! 2015-Oct-13.00 (TDB)         Residual RMS= .2733
   EC= .135511185317806    QR= 2.208855078303241   TP= 2456775.2509618802
   OM= 343.9350737173345   W=  308.8788452594443   IN= 11.12471559184022
   A= 2.5550996621226      MA= 128.6833587445148   ADIST= 2.901344245941959
   PER= 4.08432            N= .241319439           ANGMOM= .027243366
   DAN= 2.31156            DDN= 2.74135            L= 293.3460294
   B= -8.6386933           MOID= 1.21111           TP= 2014-Apr-27.7509618802
 
Asteroid physical parameters (km, seconds, rotational period in hours):
   GM= n.a.                RAD= 17.792             ROTPER= 22.572
   H= 11.63                G= .150                 B-V= n.a.
                           ALBEDO= .033            STYP= n.a.

ASTEROID comments: 
1: soln ref.= JPL#56, OCC=0
2: source=ORB
*******************************************************************************


*******************************************************************************
Ephemeris / API_USER Mon Sep  4 11:07:40 2023 Pasadena, USA      / Horizons
*******************************************************************************
Target body name: 672 Astarte (A908 SH)           {source: JPL#56}
Center body name: Solar System Barycenter (0)     {source: DE441}
Center-site name: BODY CENTER
*******************************************************************************
Start time      : A.D. 2023-Aug-12 00:00:00.0000 TDB
Stop  time      : A.D. 2023-Aug-13 00:00:00.0000 TDB
Step-size       : 2880 minutes
*******************************************************************************
Center geodetic : 0.0, 0.0, 0.0                   {E-lon(deg),Lat(deg),Alt(km)}
Center cylindric: 0.0, 0.0, 0.0                   {E-lon(deg),Dxy(km),Dz(km)}
Center radii    : (undefined)
Small perturbers: Yes                             {source: SB441-N16}
Output units    : KM-S
Calendar mode   : Mixed Julian/Gregorian
Output type     : GEOMETRIC cartesian states
Output format   : 2 (position and velocity)
Reference frame : Ecliptic of J2000.0
*******************************************************************************
Initial IAU76/J2000 heliocentric ecliptic osculating elements (au, days, deg.):
  EPOCH=  2457308.5 ! 2015-Oct-13.00 (TDB)         Residual RMS= .2733         
   EC= .135511185317806    QR= 2.208855078303241   TP= 2456775.2509618802      
   OM= 343.9350737173345   W=  308.8788452594443   IN= 11.12471559184022       
  Equivalent ICRF heliocentric cartesian coordinates (au, au/d):
   X= 8.315719352482756E-01  Y= 2.184781676565072E+00  Z= 1.535144118280638E+00
  VX=-9.002366693236827E-03 VY= 3.425038348448926E-03 VZ= 1.740824261498865E-03
Asteroid physical parameters (km, seconds, rotational period in hours):        
   GM= n.a.                RAD= 17.792             ROTPER= 22.572              
   H= 11.63                G= .150                 B-V= n.a.                   
                           ALBEDO= .033            STYP= n.a.                  
*******************************************************************************
JDTDB
   X     Y     Z
   VX    VY    VZ
*******************************************************************************
$$SOE
2460168.500000000 = A.D. 2023-Aug-12 00:00:00.0000 TDB 
 X = 2.723299124504296E+08 Y = 2.784365889784272E+08 Z = 6.752795322279774E+07
 VX=-1.122715000232720E+01 VY= 1.386245577309170E+01 VZ= 2.002674332855064E+00
$$EOE
*******************************************************************************
 
TIME

  Barycentric Dynamical Time ("TDB" or T_eph) output was requested. This
continuous coordinate time is equivalent to the relativistic proper time
of a clock at rest in a reference frame co-moving with the solar system
barycenter but outside the system's gravity well. It is the independent
variable in the solar system relativistic equations of motion.

  TDB runs at a uniform rate of one SI second per second and is independent
of irregularities in Earth's rotation.
 
CALENDAR SYSTEM

  Mixed calendar mode was active such that calendar dates after AD 1582-Oct-15
(if any) are in the modern Gregorian system. Dates prior to 1582-Oct-5 (if any)
are in the Julian calendar system, which is automatically extended for dates
prior to its adoption on 45-Jan-1 BC.  The Julian calendar is useful for
matching historical dates. The Gregorian calendar more accurately corresponds
to the Earth's orbital motion and seasons. A "Gregorian-only" calendar mode is
available if such physical events are the primary interest.

REFERENCE FRAME AND COORDINATES

  Ecliptic at the standard reference epoch

    Reference epoch: J2000.0
    X-Y plane: adopted Earth orbital plane at the reference epoch
               Note: IAU76 obliquity of 84381.448 arcseconds wrt ICRF X-Y plane
    X-axis   : ICRF
    Z-axis   : perpendicular to the X-Y plane in the directional (+ or -) sense
               of Earth's north pole at the reference epoch.

  Symbol meaning:

    JDTDB    Julian Day Number, Barycentric Dynamical Time
      X      X-component of position vector (km)
      Y      Y-component of position vector (km)
      Z      Z-component of position vector (km)
      VX     X-component of velocity vector (km/sec)                           
      VY     Y-component of velocity vector (km/sec)                           
      VZ     Z-component of velocity vector (km/sec)                           

ABERRATIONS AND CORRECTIONS

 Geometric state vectors have NO corrections or aberrations applied.

Computations by ...

    Solar System Dynamics Group, Horizons On-Line Ephemeris System
    4800 Oak Grove Drive, Jet Propulsion Laboratory
    Pasadena, CA  91109   USA

    General site: https://ssd.jpl.nasa.gov/
    Mailing list: https://ssd.jpl.nasa.gov/email_list.html
    System news : https://ssd.jpl.nasa.gov/horizons/news.html
    User Guide  : https://ssd.jpl.nasa.gov/horizons/manual.html
    Connect     : browser        https://ssd.jpl.nasa.gov/horizons/app.html#/x
                  API            https://ssd-api.jpl.nasa.gov/doc/horizons.html
                  command-line   telnet ssd.jpl.nasa.gov 6775
                  e-mail/batch   https://ssd.jpl.nasa.gov/ftp/ssd/hrzn_batch.txt
                  scripts        https://ssd.jpl.nasa.gov/ftp/ssd/SCRIPTS
    Author      : Jon.D.Giorgini@jpl.nasa.gov
*******************************************************************************
